0 SL-12 R/B(AUX MOTOR)
1 19535U 88085F   13280.31357995  .00000096  00000-0  25362-3 0  2773
2 19535 065.2827 278.0757 5620192 252.4306 307.9504 04.34788638391752
0 SL-12 R/B(AUX MOTOR)
1 19535U 88085F   13282.39688311  .00000106  00000-0  29797-3 0  2781
2 19535 065.2815 277.3061 5620128 252.3126 328.8269 04.34789287391848
0 SL-12 R/B(AUX MOTOR)
1 19535U 88085F   13286.53483813  .00000075  00000-0  23554-3 0  2792
2 19535 065.2790 275.7777 5620013 252.0785 325.7436 04.34790035392023
0 SL-12 R/B(AUX MOTOR)
1 19535U 88085F   13290.45319102  .00000072  00000-0  26166-3 0  2808
2 19535 065.2767 274.3304 5619931 251.8571 338.9418 04.34790933392196
0 SL-12 R/B(AUX MOTOR)
1 19535U 88085F   13293.44303733  .00000075  00000-0  26289-3 0  2813
2 19535 065.2751 273.2264 5619828 251.6886 338.8034 04.34791335392329
